{
  "type": "FeatureCollection",
  "features": [
    {
      "type": "Feature",
      "properties": {
        "norad_id": 37846,
        "name": "GSAT0101 (GALILEO-PFM)",
        "group": "gnss",
        "lat": 37.938534791284276,
        "lon": 136.26775346137114,
        "alt_km": 23226.632737619344,
        "timestamp": "2025-12-18T23:35:49.300462+00:00",
        "meta_object_name": "GSAT0101 (GALILEO-PFM)",
        "meta_object_id": "2011-060A",
        "meta_epoch": "2025-12-18T04:19:25.153536",
        "meta_mean_motion": 1.70475837,
        "meta_eccentricity": 0.00031306,
        "meta_inclination": 57.0515,
        "meta_ra_of_asc_node": 346.6722,
        "meta_arg_of_pericenter": 318.0107,
        "meta_mean_anomaly": 41.9798,
        "meta_ephemeris_type": 0,
        "meta_classification_type": "U",
        "meta_norad_cat_id": 37846,
        "meta_element_set_no": 999,
        "meta_rev_at_epoch": 8803,
        "meta_bstar": 0,
        "meta_mean_motion_dot": -7.6e-07,
        "meta_mean_motion_ddot": 0,
        "tle_line1": "1 37846U 11060A   25352.18015224 -.00000076  00000+0  00000+0 0  9998",
        "tle_line2": "2 37846  57.0515 346.6722 0003130 318.0107  41.9798  1.70475837 88039"
      },
      "geometry": {
        "type": "Point",
        "coordinates": [
          136.26775346137114,
          37.938534791284276
        ]
      }
    },
    {
      "type": "Feature",
      "properties": {
        "norad_id": 37847,
        "name": "GSAT0102 (GALILEO-FM2)",
        "group": "gnss",
        "lat": 1.4193305351740149,
        "lon": 165.7238506604484,
        "alt_km": 23232.468772305543,
        "timestamp": "2025-12-18T23:35:49.300475+00:00",
        "meta_object_name": "GSAT0102 (GALILEO-FM2)",
        "meta_object_id": "2011-060B",
        "meta_epoch": "2025-12-18T09:18:10.933920",
        "meta_mean_motion": 1.7047603,
        "meta_eccentricity": 0.0005099,
        "meta_inclination": 57.0522,
        "meta_ra_of_asc_node": 346.6671,
        "meta_arg_of_pericenter": 311.9548,
        "meta_mean_anomaly": 220.8374,
        "meta_ephemeris_type": 0,
        "meta_classification_type": "U",
        "meta_norad_cat_id": 37847,
        "meta_element_set_no": 999,
        "meta_rev_at_epoch": 8804,
        "meta_bstar": 0,
        "meta_mean_motion_dot": -7.6e-07,
        "meta_mean_motion_ddot": 0,
        "tle_line1": "1 37847U 11060B   25352.38762655 -.00000076  00000+0  00000+0 0  9998",
        "tle_line2": "2 37847  57.0522 346.6671 0005099 311.9548 220.8374  1.70476030 88043"
      },
      "geometry": {
        "type": "Point",
        "coordinates": [
          165.7238506604484,
          1.4193305351740149
        ]
      }
    },
    {
      "type": "Feature",
      "properties": {
        "norad_id": 37867,
        "name": "COSMOS 2476 (744)",
        "group": "gnss",
        "lat": 20.487495136479552,
        "lon": -110.9751550031315,
        "alt_km": 19113.762387947503,
        "timestamp": "2025-12-18T23:35:49.300496+00:00",
        "meta_object_name": "COSMOS 2476 (744)",
        "meta_object_id": "2011-064A",
        "meta_epoch": "2025-12-18T07:35:13.446240",
        "meta_mean_motion": 2.13103876,
        "meta_eccentricity": 0.00242895,
        "meta_inclination": 65.1659,
        "meta_ra_of_asc_node": 78.9826,
        "meta_arg_of_pericenter": 234.6288,
        "meta_mean_anomaly": 131.1641,
        "meta_ephemeris_type": 0,
        "meta_classification_type": "U",
        "meta_norad_cat_id": 37867,
        "meta_element_set_no": 999,
        "meta_rev_at_epoch": 10991,
        "meta_bstar": 0,
        "meta_mean_motion_dot": -4e-07,
        "meta_mean_motion_ddot": 0,
        "tle_line1": "1 37867U 11064A   25352.31612785 -.00000040  00000+0  00000+0 0  9996",
        "tle_line2": "2 37867  65.1659  78.9826 0024289 234.6288 131.1641  2.13103876109911"
      },
      "geometry": {
        "type": "Point",
        "coordinates": [
          -110.9751550031315,
          20.487495136479552
        ]
      }
    },
    {
      "type": "Feature",
      "properties": {
        "norad_id": 37868,
        "name": "COSMOS 2477 (745)",
        "group": "gnss",
        "lat": -19.27182169422541,
        "lon": 69.74960043692649,
        "alt_km": 19145.804125775678,
        "timestamp": "2025-12-18T23:35:49.300510+00:00",
        "meta_object_name": "COSMOS 2477 (745)",
        "meta_object_id": "2011-064B",
        "meta_epoch": "2025-12-17T02:26:26.820384",
        "meta_mean_motion": 2.13102893,
        "meta_eccentricity": 0.0021195,
        "meta_inclination": 65.1716,
        "meta_ra_of_asc_node": 79.1012,
        "meta_arg_of_pericenter": 234.7168,
        "meta_mean_anomaly": 100.3174,
        "meta_ephemeris_type": 0,
        "meta_classification_type": "U",
        "meta_norad_cat_id": 37868,
        "meta_element_set_no": 999,
        "meta_rev_at_epoch": 10987,
        "meta_bstar": 0,
        "meta_mean_motion_dot": -5e-07,
        "meta_mean_motion_ddot": 0,
        "tle_line1": "1 37868U 11064B   25351.10169931 -.00000050  00000+0  00000+0 0  9994",
        "tle_line2": "2 37868  65.1716  79.1012 0021195 234.7168 100.3174  2.13102893109879"
      },
      "geometry": {
        "type": "Point",
        "coordinates": [
          69.74960043692649,
          -19.27182169422541
        ]
      }
    },
    {
      "type": "Feature",
      "properties": {
        "norad_id": 37869,
        "name": "COSMOS 2475 (743)",
        "group": "gnss",
        "lat": -55.63524879262283,
        "lon": 36.56798802593585,
        "alt_km": 19089.021925878926,
        "timestamp": "2025-12-18T23:35:49.300528+00:00",
        "meta_object_name": "COSMOS 2475 (743)",
        "meta_object_id": "2011-064C",
        "meta_epoch": "2025-12-18T05:19:14.657088",
        "meta_mean_motion": 2.13101609,
        "meta_eccentricity": 0.0026433,
        "meta_inclination": 65.1789,
        "meta_ra_of_asc_node": 79.0834,
        "meta_arg_of_pericenter": 248.8457,
        "meta_mean_anomaly": 181.3342,
        "meta_ephemeris_type": 0,
        "meta_classification_type": "U",
        "meta_norad_cat_id": 37869,
        "meta_element_set_no": 999,
        "meta_rev_at_epoch": 10991,
        "meta_bstar": 0,
        "meta_mean_motion_dot": -4.1e-07,
        "meta_mean_motion_ddot": 0,
        "tle_line1": "1 37869U 11064C   25352.22169742 -.00000041  00000+0  00000+0 0  9999",
        "tle_line2": "2 37869  65.1789  79.0834 0026433 248.8457 181.3342  2.13101609109913"
      },
      "geometry": {
        "type": "Point",
        "coordinates": [
          36.56798802593585,
          -55.63524879262283
        ]
      }
    },
    {
      "type": "Feature",
      "properties": {
        "norad_id": 37948,
        "name": "BEIDOU-2 IGSO-5 (C10)",
        "group": "gnss",
        "lat": -47.4593977224091,
        "lon": 172.0830917894757,
        "alt_km": 35429.96254351851,
        "timestamp": "2025-12-18T23:35:49.300540+00:00",
        "meta_object_name": "BEIDOU-2 IGSO-5 (C10)",
        "meta_object_id": "2011-073A",
        "meta_epoch": "2025-12-18T16:23:51.533376",
        "meta_mean_motion": 1.00290152,
        "meta_eccentricity": 0.01099443,
        "meta_inclination": 48.0091,
        "meta_ra_of_asc_node": 273.7856,
        "meta_arg_of_pericenter": 222.3449,
        "meta_mean_anomaly": 290.7013,
        "meta_ephemeris_type": 0,
        "meta_classification_type": "U",
        "meta_norad_cat_id": 37948,
        "meta_element_set_no": 999,
        "meta_rev_at_epoch": 5132,
        "meta_bstar": 0,
        "meta_mean_motion_dot": -1.7e-06,
        "meta_mean_motion_ddot": 0,
        "tle_line1": "1 37948U 11073A   25352.68323534 -.00000170  00000+0  00000+0 0  9991",
        "tle_line2": "2 37948  48.0091 273.7856 0109944 222.3449 290.7013  1.00290152 51329"
      },
      "geometry": {
        "type": "Point",
        "coordinates": [
          172.0830917894757,
          -47.4593977224091
        ]
      }
    },
    {
      "type": "Feature",
      "properties": {
        "norad_id": 37951,
        "name": "LUCH 5A (SDCM/PRN 140)",
        "group": "gnss",
        "lat": 1.0743494798154805,
        "lon": -111.06097505371419,
        "alt_km": 35766.020697874475,
        "timestamp": "2025-12-18T23:35:49.300552+00:00",
        "meta_object_name": "LUCH 5A (SDCM/PRN 140)",
        "meta_object_id": "2011-074B",
        "meta_epoch": "2025-12-18T12:25:34.021632",
        "meta_mean_motion": 1.00269029,
        "meta_eccentricity": 0.00050942,
        "meta_inclination": 8.2939,
        "meta_ra_of_asc_node": 76.4984,
        "meta_arg_of_pericenter": 188.8456,
        "meta_mean_anomaly": 175.5135,
        "meta_ephemeris_type": 0,
        "meta_classification_type": "U",
        "meta_norad_cat_id": 37951,
        "meta_element_set_no": 999,
        "meta_rev_at_epoch": 5124,
        "meta_bstar": 0,
        "meta_mean_motion_dot": -3.1e-07,
        "meta_mean_motion_ddot": 0,
        "tle_line1": "1 37951U 11074B   25352.51775488 -.00000031  00000+0  00000+0 0  9993",
        "tle_line2": "2 37951   8.2939  76.4984 0005094 188.8456 175.5135  1.00269029 51242"
      },
      "geometry": {
        "type": "Point",
        "coordinates": [
          -111.06097505371419,
          1.0743494798154805
        ]
      }
    }
  ]
}